CCSDS_OMM_VERS = 2.0
CREATION_DATE  = 
ORIGINATOR     = 

OBJECT_NAME    = IDEFIX & ARIANE 42P R/B
OBJECT_ID      = 2002-021B
CENTER_NAME    = EARTH
REF_FRAME      = TEME
TIME_SYSTEM    = UTC
MEAN_ELEMENT_THEORY = SGP/SGP4

EPOCH          = 2026-03-03T19:58:33.899520
MEAN_MOTION    = 14.31021372
ECCENTRICITY   = .00112416
INCLINATION    = 98.5864
RA_OF_ASC_NODE = 1.5088
ARG_OF_PERICENTER = 200.0167
MEAN_ANOMALY   = 160.0576

EPHEMERIS_TYPE = 0
CLASSIFICATION_TYPE = U
NORAD_CAT_ID   = 27422
ELEMENT_SET_NO = 999
REV_AT_EPOCH   = 24318
BSTAR          = .16835284E-3
MEAN_MOTION_DOT = .4E-5
MEAN_MOTION_DDOT = 0

CCSDS_OMM_VERS = 2.0
CREATION_DATE  = 
ORIGINATOR     = 

OBJECT_NAME    = AQUA
OBJECT_ID      = 2002-022A
CENTER_NAME    = EARTH
REF_FRAME      = TEME
TIME_SYSTEM    = UTC
MEAN_ELEMENT_THEORY = SGP/SGP4

EPOCH          = 2026-03-03T22:19:03.512064
MEAN_MOTION    = 14.61960780
ECCENTRICITY   = .00006471
INCLINATION    = 98.4165
RA_OF_ASC_NODE = 30.1904
ARG_OF_PERICENTER = 58.3453
MEAN_ANOMALY   = 333.3992

EPHEMERIS_TYPE = 0
CLASSIFICATION_TYPE = U
NORAD_CAT_ID   = 27424
ELEMENT_SET_NO = 999
REV_AT_EPOCH   = 26789
BSTAR          = .31184974E-3
MEAN_MOTION_DOT = .1513E-4
MEAN_MOTION_DDOT = 0

CCSDS_OMM_VERS = 2.0
CREATION_DATE  = 
ORIGINATOR     = 

OBJECT_NAME    = CZ-4B R/B
OBJECT_ID      = 2002-024C
CENTER_NAME    = EARTH
REF_FRAME      = TEME
TIME_SYSTEM    = UTC
MEAN_ELEMENT_THEORY = SGP/SGP4

EPOCH          = 2026-03-03T18:54:12.606624
MEAN_MOTION    = 14.14546378
ECCENTRICITY   = .00507389
INCLINATION    = 98.8851
RA_OF_ASC_NODE = 116.2238
ARG_OF_PERICENTER = 40.7911
MEAN_ANOMALY   = 72.6102

EPHEMERIS_TYPE = 0
CLASSIFICATION_TYPE = U
NORAD_CAT_ID   = 27432
ELEMENT_SET_NO = 999
REV_AT_EPOCH   = 22840
BSTAR          = .58247537E-4
MEAN_MOTION_DOT = .69E-6
MEAN_MOTION_DDOT = 0

CCSDS_OMM_VERS = 2.0
CREATION_DATE  = 
ORIGINATOR     = 

OBJECT_NAME    = MIDORI II (ADEOS-II)
OBJECT_ID      = 2002-056A
CENTER_NAME    = EARTH
REF_FRAME      = TEME
TIME_SYSTEM    = UTC
MEAN_ELEMENT_THEORY = SGP/SGP4

EPOCH          = 2026-03-03T20:28:44.456448
MEAN_MOTION    = 14.29279827
ECCENTRICITY   = .00017962
INCLINATION    = 98.7759
RA_OF_ASC_NODE = 21.2910
ARG_OF_PERICENTER = 51.1824
MEAN_ANOMALY   = 308.9517

EPHEMERIS_TYPE = 0
CLASSIFICATION_TYPE = U
NORAD_CAT_ID   = 27597
ELEMENT_SET_NO = 999
REV_AT_EPOCH   = 20946
BSTAR          = .18321408E-3
MEAN_MOTION_DOT = .421E-5
MEAN_MOTION_DDOT = 0

CCSDS_OMM_VERS = 2.0
CREATION_DATE  = 
ORIGINATOR     = 

OBJECT_NAME    = H-2A R/B
OBJECT_ID      = 2002-056E
CENTER_NAME    = EARTH
REF_FRAME      = TEME
TIME_SYSTEM    = UTC
MEAN_ELEMENT_THEORY = SGP/SGP4

EPOCH          = 2026-03-03T20:05:42.403776
MEAN_MOTION    = 14.33756197
ECCENTRICITY   = .00701352
INCLINATION    = 98.3192
RA_OF_ASC_NODE = 23.4260
ARG_OF_PERICENTER = 178.0645
MEAN_ANOMALY   = 202.1846

EPHEMERIS_TYPE = 0
CLASSIFICATION_TYPE = U
NORAD_CAT_ID   = 27601
ELEMENT_SET_NO = 999
REV_AT_EPOCH   = 21327
BSTAR          = .13821928E-3
MEAN_MOTION_DOT = .353E-5
MEAN_MOTION_DDOT = 0

CCSDS_OMM_VERS = 2.0
CREATION_DATE  = 
ORIGINATOR     = 

OBJECT_NAME    = CZ-4B R/B
OBJECT_ID      = 2003-049C
CENTER_NAME    = EARTH
REF_FRAME      = TEME
TIME_SYSTEM    = UTC
MEAN_ELEMENT_THEORY = SGP/SGP4

EPOCH          = 2026-03-03T14:34:05.718432
MEAN_MOTION    = 14.55013265
ECCENTRICITY   = .0047056
INCLINATION    = 98.6873
RA_OF_ASC_NODE = 57.2734
ARG_OF_PERICENTER = 249.8633
MEAN_ANOMALY   = 109.7497

EPHEMERIS_TYPE = 0
CLASSIFICATION_TYPE = U
NORAD_CAT_ID   = 28059
ELEMENT_SET_NO = 999
REV_AT_EPOCH   = 18571
BSTAR          = .1378E-3
MEAN_MOTION_DOT = .55E-5
MEAN_MOTION_DDOT = 0

CCSDS_OMM_VERS = 2.0
CREATION_DATE  = 
ORIGINATOR     = 

OBJECT_NAME    = CZ-2C R/B
OBJECT_ID      = 2004-012C
CENTER_NAME    = EARTH
REF_FRAME      = TEME
TIME_SYSTEM    = UTC
MEAN_ELEMENT_THEORY = SGP/SGP4

EPOCH          = 2026-03-03T17:21:29.700288
MEAN_MOTION    = 15.63693410
ECCENTRICITY   = .00133264
INCLINATION    = 97.7246
RA_OF_ASC_NODE = 127.4537
ARG_OF_PERICENTER = 333.6742
MEAN_ANOMALY   = 26.3837

EPHEMERIS_TYPE = 0
CLASSIFICATION_TYPE = U
NORAD_CAT_ID   = 28222
ELEMENT_SET_NO = 999
REV_AT_EPOCH   = 20334
BSTAR          = .73196171E-3
MEAN_MOTION_DOT = .68801E-3
MEAN_MOTION_DDOT = 0

CCSDS_OMM_VERS = 2.0
CREATION_DATE  = 
ORIGINATOR     = 

OBJECT_NAME    = SL-16 R/B
OBJECT_ID      = 2004-021B
CENTER_NAME    = EARTH
REF_FRAME      = TEME
TIME_SYSTEM    = UTC
MEAN_ELEMENT_THEORY = SGP/SGP4

EPOCH          = 2026-03-03T20:53:50.623584
MEAN_MOTION    = 14.14599553
ECCENTRICITY   = .00037328
INCLINATION    = 70.9992
RA_OF_ASC_NODE = 244.7047
ARG_OF_PERICENTER = 21.1238
MEAN_ANOMALY   = 339.0037

EPHEMERIS_TYPE = 0
CLASSIFICATION_TYPE = U
NORAD_CAT_ID   = 28353
ELEMENT_SET_NO = 999
REV_AT_EPOCH   = 12201
BSTAR          = -.47800181E-4
MEAN_MOTION_DOT = -.14E-5
MEAN_MOTION_DDOT = 0

CCSDS_OMM_VERS = 2.0
CREATION_DATE  = 
ORIGINATOR     = 

OBJECT_NAME    = CZ-4B R/B
OBJECT_ID      = 2004-035C
CENTER_NAME    = EARTH
REF_FRAME      = TEME
TIME_SYSTEM    = UTC
MEAN_ELEMENT_THEORY = SGP/SGP4

EPOCH          = 2026-03-03T15:02:17.422656
MEAN_MOTION    = 15.28932257
ECCENTRICITY   = .0031634
INCLINATION    = 97.3505
RA_OF_ASC_NODE = 96.9417
ARG_OF_PERICENTER = 353.5115
MEAN_ANOMALY   = 6.5711

EPHEMERIS_TYPE = 0
CLASSIFICATION_TYPE = U
NORAD_CAT_ID   = 28415
ELEMENT_SET_NO = 999
REV_AT_EPOCH   = 17898
BSTAR          = .38586E-3
MEAN_MOTION_DOT = .10935E-3
MEAN_MOTION_DDOT = 0

CCSDS_OMM_VERS = 2.0
CREATION_DATE  = 
ORIGINATOR     = 

OBJECT_NAME    = CZ-2C R/B
OBJECT_ID      = 2004-046B
CENTER_NAME    = EARTH
REF_FRAME      = TEME
TIME_SYSTEM    = UTC
MEAN_ELEMENT_THEORY = SGP/SGP4

EPOCH          = 2026-03-03T17:39:34.482528
MEAN_MOTION    = 14.26989818
ECCENTRICITY   = .01395225
INCLINATION    = 98.1987
RA_OF_ASC_NODE = 338.0901
ARG_OF_PERICENTER = 172.0058
MEAN_ANOMALY   = 188.3394

EPHEMERIS_TYPE = 0
CLASSIFICATION_TYPE = U
NORAD_CAT_ID   = 28480
ELEMENT_SET_NO = 999
REV_AT_EPOCH   = 10765
BSTAR          = .72528166E-4
MEAN_MOTION_DOT = .155E-5
MEAN_MOTION_DDOT = 0

CCSDS_OMM_VERS = 2.0
CREATION_DATE  = 
ORIGINATOR     = 

OBJECT_NAME    = ARIANE 5 R/B
OBJECT_ID      = 2004-049H
CENTER_NAME    = EARTH
REF_FRAME      = TEME
TIME_SYSTEM    = UTC
MEAN_ELEMENT_THEORY = SGP/SGP4

EPOCH          = 2026-03-03T21:45:08.359200
MEAN_MOTION    = 14.85253666
ECCENTRICITY   = .0084361
INCLINATION    = 98.2617
RA_OF_ASC_NODE = 231.1472
ARG_OF_PERICENTER = 10.6621
MEAN_ANOMALY   = 349.6356

EPHEMERIS_TYPE = 0
CLASSIFICATION_TYPE = U
NORAD_CAT_ID   = 28499
ELEMENT_SET_NO = 999
REV_AT_EPOCH   = 14493
BSTAR          = .13182243E-3
MEAN_MOTION_DOT = .114E-4
MEAN_MOTION_DDOT = 0

CCSDS_OMM_VERS = 2.0
CREATION_DATE  = 
ORIGINATOR     = 

OBJECT_NAME    = CZ-2D R/B
OBJECT_ID      = 2005-024B
CENTER_NAME    = EARTH
REF_FRAME      = TEME
TIME_SYSTEM    = UTC
MEAN_ELEMENT_THEORY = SGP/SGP4

EPOCH          = 2026-03-03T23:59:53.239200
MEAN_MOTION    = 15.59546967
ECCENTRICITY   = .00067238
INCLINATION    = 97.3594
RA_OF_ASC_NODE = 77.9392
ARG_OF_PERICENTER = 61.1543
MEAN_ANOMALY   = 299.0388

EPHEMERIS_TYPE = 0
CLASSIFICATION_TYPE = U
NORAD_CAT_ID   = 28738
ELEMENT_SET_NO = 999
REV_AT_EPOCH   = 13889
BSTAR          = .70719887E-3
MEAN_MOTION_DOT = .5639E-3
MEAN_MOTION_DDOT = 0

