IDEFIX & ARIANE 42P R/B 
1 27422U 02021B   26062.83233680  .00000400  00000+0  16835-3 0  9990
2 27422  98.5864   1.5088 0011241 200.0167 160.0576 14.31021372243183
AQUA                    
1 27424U 02022A   26062.92990176  .00001513  00000+0  31185-3 0  9994
2 27424  98.4165  30.1904 0000647  58.3453 333.3992 14.61960780267892
CZ-4B R/B               
1 27432U 02024C   26062.78764591  .00000069  00000+0  58248-4 0  9994
2 27432  98.8851 116.2238 0050738  40.7911  72.6102 14.14546378228404
MIDORI II (ADEOS-II)    
1 27597U 02056A   26062.85329232  .00000421  00000+0  18321-3 0  9997
2 27597  98.7759  21.2910 0001796  51.1824 308.9517 14.29279827209461
H-2A R/B                
1 27601U 02056E   26062.83729634  .00000353  00000+0  13822-3 0  9996
2 27601  98.3192  23.4260 0070135 178.0645 202.1846 14.33756197213278
CZ-4B R/B               
1 28059U 03049C   26062.60701063  .00000550  00000+0  13780-3 0  9990
2 28059  98.6873  57.2734 0047056 249.8633 109.7497 14.55013265185713
CZ-2C R/B               
1 28222U 04012C   26062.72326042  .00068801  00000+0  73196-3 0  9996
2 28222  97.7246 127.4537 0013326 333.6742  26.3837 15.63693410203344
SL-16 R/B               
1 28353U 04021B   26062.87072481 -.00000140  00000+0 -47800-4 0  9990
2 28353  70.9992 244.7047 0003732  21.1238 339.0037 14.14599553122016
CZ-4B R/B               
1 28415U 04035C   26062.62659054  .00010935  00000+0  38586-3 0  9995
2 28415  97.3505  96.9417 0031634 353.5115   6.5711 15.28932257178984
CZ-2C R/B               
1 28480U 04046B   26062.73581577  .00000155  00000+0  72528-4 0  9993
2 28480  98.1987 338.0901 0139522 172.0058 188.3394 14.26989818107656
ARIANE 5 R/B            
1 28499U 04049H   26062.90634675  .00001140  00000+0  13182-3 0  9998
2 28499  98.2617 231.1472 0084361  10.6621 349.6356 14.85253666144938
CZ-2D R/B               
1 28738U 05024B   26062.99992175  .00056390  00000+0  70720-3 0  9997
2 28738  97.3594  77.9392 0006723  61.1543 299.0388 15.59546967138897
